{
    "links": {
        "self": "http://www.neowsapp.com/rest/v1/neo/54034187?api_key=iIulBulltgU6a56xZRHN4H3l9WmuAYTsLGpBGhQ2"
    },
    "id": "54034187",
    "neo_reference_id": "54034187",
    "name": "(2020 NN)",
    "designation": "2020 NN",
    "nasa_jpl_url": "http://ssd.jpl.nasa.gov/sbdb.cgi?sstr=54034187",
    "absolute_magnitude_h": 24.618,
    "estimated_diameter": {
        "kilometers": {
            "estimated_diameter_min": 0.0316923889,
            "estimated_diameter_max": 0.070866336
        },
        "meters": {
            "estimated_diameter_min": 31.692388904,
            "estimated_diameter_max": 70.8663359587
        },
        "miles": {
            "estimated_diameter_min": 0.0196927314,
            "estimated_diameter_max": 0.044034286
        },
        "feet": {
            "estimated_diameter_min": 103.9776572118,
            "estimated_diameter_max": 232.5011096668
        }
    },
    "is_potentially_hazardous_asteroid": false,
    "close_approach_data": [
        {
            "close_approach_date": "2020-07-25",
            "close_approach_date_full": "2020-Jul-25 12:56",
            "epoch_date_close_approach": 1595681760000,
            "relative_velocity": {
                "kilometers_per_second": "10.1274917672",
                "kilometers_per_hour": "36458.9703620471",
                "miles_per_hour": "22654.1863341286"
            },
            "miss_distance": {
                "astronomical": "0.041677252",
                "lunar": "16.212451028",
                "kilometers": "6234828.12665324",
                "miles": "3874142.551525112"
            },
            "orbiting_body": "Earth"
        },
        {
            "close_approach_date": "2066-09-17",
            "close_approach_date_full": "2066-Sep-17 04:30",
            "epoch_date_close_approach": 3051923400000,
            "relative_velocity": {
                "kilometers_per_second": "18.4642888153",
                "kilometers_per_hour": "66471.4397350408",
                "miles_per_hour": "41302.7676509202"
            },
            "miss_distance": {
                "astronomical": "0.3817032985",
                "lunar": "148.4825831165",
                "kilometers": "57102000.427574195",
                "miles": "35481537.764926091"
            },
            "orbiting_body": "Earth"
        }
    ],
    "orbital_data": {
        "orbit_id": "11",
        "orbit_determination_date": "2020-10-11 07:08:44",
        "first_observation_date": "2020-07-09",
        "last_observation_date": "2020-07-27",
        "data_arc_in_days": 18,
        "observations_used": 57,
        "orbit_uncertainty": "7",
        "minimum_orbit_intersection": ".0174477",
        "jupiter_tisserand_invariant": "3.426",
        "epoch_osculation": "2459000.5",
        "eccentricity": ".5341422681621643",
        "semi_major_axis": "2.215005740837483",
        "inclination": "12.642976099092",
        "ascending_node_longitude": "129.674325852861",
        "orbital_period": "1204.09488389038",
        "perihelion_distance": "1.031877550434335",
        "perihelion_argument": "179.4605880121823",
        "aphelion_distance": "3.39813393124063",
        "perihelion_time": "2459060.094149481266",
        "mean_anomaly": "342.1825554611285",
        "mean_motion": ".2989797604959961",
        "equinox": "J2000",
        "orbit_class": {
            "orbit_class_type": "AMO",
            "orbit_class_description": "Near-Earth asteroid orbits similar to that of 1221 Amor",
            "orbit_class_range": "1.017 AU < q (perihelion) < 1.3 AU"
        }
    },
    "is_sentry_object": false
}